UNKNOWN                 
1 84932U          26093.56271234  .00000851  00000+0  70555-2 0  9993
2 84932   2.0582 177.4092 6574241 182.6260 160.9292  3.00176689135142
UNKNOWN                 
1 85004U          26092.66443670  .00001119  00000+0  35407-3 0  9995
2 85004  98.4381  67.1809 0046458 187.4721 350.6666 14.41408583646871
UNKNOWN                 
1 85010U          26093.09308339  .00001287  00000+0  13824-2 0  9996
2 85010  99.2417 316.5944 0026562 324.5503 189.3515 13.75320279619224
UNKNOWN                 
1 85015U          26090.54480842  .00000688  00000+0  14160-3 0  9997
2 85015  74.0503 189.9652 0013913  66.1380 294.1243 14.62444688658518
UNKNOWN                 
1 85023U          26092.08457380  .00030967  00000+0  39336-2 0  9992
2 85023  99.8354 136.8805 0000963 160.1103 228.9922 14.81582865645130
UNKNOWN                 
1 85027U          26093.65164474  .00000232  00000+0  29679-3 0  9991
2 85027  66.0417 187.4560 0168416 130.1932 231.4014 13.74297968619999
UNKNOWN                 
1 85047U          26092.92255610  .00018006  00000+0  28158-1 0  9992
2 85047 102.1676  86.7472 0126810 123.7581 237.5699 13.47273534591610
UNKNOWN                 
1 85061U          26092.94287974  .00004725  00000+0  18686-1 0  9996
2 85061 102.4014  91.9923 0264015 334.4459  81.6787 12.77878483569986
UNKNOWN                 
1 85100U          26091.07487483  .00000438  00000+0  14496-3 0  9994
2 85100  74.0480  20.6343 0013440 225.0229 152.2993 14.40814286649098
UNKNOWN                 
1 85106U          26093.26247314  .00000826  00000+0  94562-3 0  9993
2 85106 100.0544 204.6094 0010866  92.1355 297.9506 13.73067412618374
UNKNOWN                 
1 85151U          26090.45015921  .00026046  00000+0  31124-2 0  9994
2 85151  98.3980 324.7241 0007770 140.8440 219.3337 14.84145521495623
UNKNOWN                 
1 85210U          26090.68657712  .00000412  00000+0  43080-3 0  9999
2 85210  99.8645 239.6912 0215263  35.7962 340.9039 13.71687155617097
